GLOBALSTAR M063 [+]     
1 26081U 00008A   23316.47130069 -.00000046  00000+0  53636-3 0  9996
2 26081  51.9940 206.2048 0003682 286.7403 244.3226 11.86147657 88429
GLOBALSTAR M062 [-]     
1 26082U 00008B   23316.41266602 -.00000057  00000+0  29349-3 0  9990
2 26082  51.9873   9.4801 0006498 308.4874  64.7016 12.43420038424120
GLOBALSTAR M060 [-]     
1 26083U 00008C   23316.59218098 -.00000036  00000+0  55153-3 0  9995
2 26083  52.0018 246.5410 0004215  28.1787 143.2073 12.17618615 81393
GLOBALSTAR M064 [-]     
1 26084U 00008D   23316.41247807 -.00000087  00000+0 -60855-4 0  9990
2 26084  52.0043 312.0606 0001759  22.2454 337.8455 11.88511446 97803
GLOBALSTAR M065 [+]     
1 31571U 07020A   23316.40197075 -.00000052  00000+0  29195-3 0  9990
2 31571  51.9884 199.9962 0010839  96.3591  75.3902 12.61957745759827
GLOBALSTAR M069 [+]     
1 31573U 07020C   23316.49148567 -.00000053  00000+0  28538-3 0  9994
2 31573  51.9931 155.8321 0001320  88.6280 279.3064 12.62260753760965
GLOBALSTAR M072 [+]     
1 31574U 07020D   23316.60278392 -.00000078  00000+0  14427-3 0  9997
2 31574  52.0085 251.2379 0000987  53.0965 118.2344 12.62268696759241
GLOBALSTAR M071 [P]     
1 31576U 07020F   23316.51926750 -.00000056  00000+0  26834-3 0  9998
2 31576  52.0047 160.7451 0000984  76.0558 296.4367 12.62272842422155
